id,name,shortname,strasse,bezirk,plz_ort,von,bis,oeffnungszeiten,Mo,Di,Mi,Do,Fr,Sa,So,closed-exc,hours-exc,w3,bemerkungen,bemerkungen_en,lat,lng,ignore,immer-kostenlos,international,barrierefrei,action,short_distance,train,image,urheberschaft
1,Weihnachtsmarkt Fußgängerzone Wilmersdorfer Strasse,Weihnachtsmarkt Fußgängerzone Wilmersdorfer Strasse,"Fußgängerzone, Willmersdorferstraße",Charlottenburg-Wilmersdorf,10627 Berlin,24.11.25,27.12.25,"Montag - Samstag: 11:00 - 20:00 Uhr
Sonntag: 12:00 - 19:00 Uhr
Heiligabend 10:00 bis 14:00 Uhr 
Am 25. Dezember und 26.12.2025 bleibt der Markt geschlossen!",11:00 - 20:00,11:00 - 20:00,11:00 - 20:00,11:00 - 20:00,11:00 - 20:00,11:00 - 20:00,12:00 - 19:00,"25.12.25, 26.12.25",24.12.25= 10:00 - 14:00,,25 Jahre Jubiläum - Weihnachtsmarkt in Berlins größter Fußgängerzone mit tollen Attraktionen! Weihnachtsbaum mit über 25.000 Lichtern Lichterglanz und Weihnachtszauber in der gesamten Fußgängerzone.,"25th anniversary - Christmas market in Berlin's largest pedestrian zone with fantastic attractions! Christmas tree with over 25,000 lights Sparkling lights and Christmas magic throughout the pedestrian zone",52.509,13.305,0,1,0,1,0,1,"U Wilmersdorfer Str., U Bismarckstr.",placeholder.png,"freestocks.org, CC BY-SA 4.0 via Wikimedia Commons"
4,Alt-Buckower Adventsmarkt,Alt-Buckower Adventsmarkt,Alt-Buckow 36-38,Neukölln,12349 Berlin,29.11.25,29.11.25,14:00 - 22:00 Uhr,0,0,0,0,0,14:00 - 22:00,0,0,0,https://www.dorfkirche-alt-buckow.de,"Der Außen- und Innenbereich, sowie die Toiletten sind Barrierefrei.","The outdoor and indoor areas, as well as the restrooms, are barrier-free.",52.4219,13.4309,0,1,0,1,0,0,,placeholder.png,"freestocks.org, CC BY-SA 4.0 via Wikimedia Commons"
7,Weihnachtsmarkt Alt-Kaulsdorf,Weihnachtsmarkt Alt-Kaulsdorf,Alt-Kaulsdorf Dorfstrasse,Marzahn-Hellersdorf,12621 Berlin,06.12.25,06.12.25,13:00 - 20:00 Uhr,0,0,0,0,0,13:00 - 20:00,0,0,0,https://www.kaulsdorfer-weihnachtsmarkt.de,"Von U-Bahn, S-Bahn und Bus gut erreichbar.","Easily accessible by subway, commuter train and bus.",52.5082,13.5801,0,1,0,1,0,0,,placeholder.png,"freestocks.org, CC BY-SA 4.0 via Wikimedia Commons"
10,Weihnachtsmarkt Berlin by »der Weinlobbyist«,Weihnachtsmarkt Berlin by »der Weinlobbyist«,Kolonnenstr. 62,Tempelhof-Schöneberg,10827 Berlin,24.11.25,31.12.25,Montag - Sonntag: 15:00 - 22:00 Uhr,15:00 - 22:00,15:00 - 22:00,15:00 - 22:00,15:00 - 22:00,15:00 - 22:00,15:00 - 22:00,15:00 - 22:00,0,0,https://www.derweinlobbyist.de/weihnachtsmarkt-berlin-2025,Auch zwischen den Jahren geöffnet.,Also open between Christmas and New Year.,52.4871,13.3585,0,1,0,1,0,1,"S Julius-Leber-Brücke, U-Bahn Kleistpark",placeholder.png,"freestocks.org, CC BY-SA 4.0 via Wikimedia Commons"
13,Weihnachtsmarkt am Schloss Charlottenburg,Weihnachtsmarkt am Schloss Charlottenburg,Spandauer Damm 20,Spandau,14059 Berlin,24.11.25,28.12.25,"Montag - Donnerstag: 13:00 - 22:00 Uhr
Freitag - Sonntag: 12:00 - 22:00 Uhr
1. und 2. Feiertag: 12:00 -22:00  Uhr
24.12.2025 geschlossen",13:00 - 22:00,13:00 - 22:00,13:00 - 22:00,13:00 - 22:00,12:00 - 22:00,12:00 - 22:00,12:00 - 22:00,24.12.25,"25.12.25= 12:00 - 22:00, 26.12.24= 12:00 - 22:00",https://www.schloss-weihnachtsmarkt.de,,,52.5199,13.2933,0,1,0,1,1,0,,Weihnachtsmarkt_Schloss_Charlottenburg.jpg,"Heidi zu Klampen, CC BY-SA 3.0 via Wikimedia Commons"
16,Weihnachtsmarkt auf der Dicken Linda,Weihnachtsmarkt auf der Dicken Linda,Kranoldplatz,Neukölln,12051 Berlin,13.12.25,13.12.25,10:00 - 18:00 Uhr,0,0,0,0,0,10:00 - 18:00,0,0,0,https://www.diemarktplaner.de,"Auf dem Neuköllner Kranoldplatz findet das achte Jahr in Folge am 2. Advents-Samstag eine weihnachtliche Marktausgabe statt, 10 bis 18 Uhr. An allen anderen Samstagen im Jahr ist hier von 10 bis 16 Uhr der Wochenmarkt DIE DICKE LINDA zu finden, der ebenfalls von diemarktplaner organisiert wird. Hinweis zur Barrierefreiheit: Der Markt befindet sich auf einem ebenerdigen Platz.","For the eighth year in a row, a Christmas market will be held on Kranoldplatz in Neukölln on the second Saturday of Advent, from 10 a.m. to 6 p.m. On all other Saturdays throughout the year, the weekly market DIE DICKE LINDA, also organized by diemarktplaner, can be found here from 10 a.m. to 4 p.m. The market is located on a level square.",52.4664,13.4378,0,1,0,1,0,1,S+U Neukölln,placeholder.png,"freestocks.org, CC BY-SA 4.0 via Wikimedia Commons"
19,Weihnachtsmarkt in der Linde,Weihnachtsmarkt in der Linde,Johannisberger Str. 15A,Charlottenburg-Wilmersdorf,14197 Berlin,06.12.25,06.12.25,12:00 -18:00 Uhr,0,0,0,0,0,12:00 - 18:00,0,0,0,https://www.lindenkirche.de,Hinweis zur Barrierefreiheit: Der Weihnachtsmarkt findet im Erdgeschoß (Gemeindehaus und Kirche) und im Lindengarten statt. Die Kirche und das Gemeindehaus sind über eine Rollstühlrampe erreichbar. Im Gemeindehaus befindet sich auch eine Barrierefreie Toilette.,The Christmas market takes place on the ground floor (parish hall and church) and in the Linden Garden. The church and parish hall are accessible via a wheelchair ramp. There is also a barrier-free toilet in the parish hall.,52.4753,13.3106,0,1,0,1,0,1,U Rüdesheimer Platz,placeholder.png,"freestocks.org, CC BY-SA 4.0 via Wikimedia Commons"
22,Potsdamer Weihnachten,Potsdamer Weihnachten,"Luisenplatz, Vorplatz Brandenburger Tor, Brandenburger Straße, Bassinplatz Nord und Süd",Brandenburg,,24.11.25,28.12.25,So-Do  | 11-21 Uhr  | Fr-Sa  | 11-22 Uhr  | 24.12.: geschlossen  | 25.-26.12.: 11-18 uhr,11:00 - 21:00,11:00 - 21:00,11:00 - 21:00,11:00 - 21:00,11:00 - 21:00,11:00 - 21:00,11:00 - 21:00,0,0,https://www.hauptstadtkultur.berlin/potsdamer-weihnachten/,"In einem einmaligen Ambiente lädt der Potsdamer Weihnachtsmarkt seine Gäste dazu ein, die vorweihnachtliche Zeit in einer historischen Kulisse zu erleben. Ob weihnachtliche Genüsse, Kunsthandwerker, Eisbahn, Riesenrad, 2 Bühnen oder der Weihnachtsbummel in der Brandenburger Straße mit seinen vielseitigen Geschäften, hier gibt es einiges zu erleben. Hinweis zur Barrierefreiheit: Es stehen barrierefreie WCs zur Verfügung, Kabel und Schläuche werden mit Überfahrbrücken gesichert, und es gibt niedrigere Stehtische für Rollstuhlnutzer*innen.",,52.403,13.045,1,0,0,1,0,0,,placeholder.png,"freestocks.org, CC BY-SA 4.0 via Wikimedia Commons"
28,Weihnachtsmarkt Hallen am Borsigturm,Weihnachtsmarkt Hallen am Borsigturm,An den Hallen am Borsigturm,Tegel,13507 Berlin,24.11.25,30.12.25,"Montag - Samstag: 11:00 - 21:00 Uhr
Sonntag: 13:00 - 19:00 Uhr
24.-26.12.2025: geschlossen",11:00 - 21:00,11:00 - 21:00,11:00 - 21:00,11:00 - 21:00,11:00 - 21:00,11:00 - 21:00,13:00 - 19:00,"24.12.25, 25.12.25, 26.12.25",0,https://www.hauptstadtkultur.berlin/weihnachtsmarkt-hallen-am-borsigturm-1/,"Ob zum Ausklang eines Weihnachtseinkaufs in den Borsighallen oder als entspannter Familienausflug am Wochenende – dieser Weihnachtsmarkt bietet zahlreiche Gelegenheiten für besondere Momente und vereint besinnliche Feststimmung, Live-Musik und das ideale Ambiente für einen gelungenen Weihnachtseinkauf. Genießen Sie die festliche Atmosphäre, die musikalischen Höhepunkte und die Nähe zum Shopping – ein rundum stimmungsvolles Erlebnis im Herzen Berlins. Erleben Sie alles, was das Herz zur Adventszeit begehrt: liebevoll geschmückte Stände mit süßen und herzhaften Köstlichkeiten, die perfekt zur winterlichen Jahreszeit passen. Besonders die kleinen Gäste kommen hier auf ihre Kosten – das große Kinderkarussell lässt Kinderaugen leuchten und macht den Besuch für Familien zu einem besonderen Erlebnis. Hinweis zur Barrierefreiheit: Es stehen barrierefreie WCs zur Verfügung, Kabel und Schläuche werden mit Überfahrbrücken gesichert. Der Markt ist Montags bis Samstags von 11 bis 21 Uhr und Sonntags von 13 bis 19 Uhr geöffnet, mit einer kurzen Pause an den Feiertagen vom 24. bis 26. Dezember.","Whether you're wrapping up your Christmas shopping in the Borsighallen or enjoying a relaxing family outing on the weekend, this Christmas market offers plenty of opportunities for special moments and combines a festive atmosphere, live music, and the ideal setting for successful Christmas shopping. Enjoy the festive atmosphere, the musical highlights, and the proximity to shopping—an all-round atmospheric experience in the heart of Berlin. Experience everything your heart desires during Advent: lovingly decorated stalls with sweet and savory delicacies that are perfect for the winter season. Younger guests in particular will get their money's worth here – the large children's carousel will make children's eyes light up and make the visit a special experience for families. Barrier-free toilets are available, and cables and hoses are secured with bridges. The market is open Monday to Saturday from 11 a.m. to 9 p.m. and Sunday from 1 p.m. to 7 p.m., with a short break on the holidays from December 24 to 26.",52.585999,13.2867,0,1,0,1,1,1,"U Alt-Tegel, S Tegel",Eingang_HallenAmBorsigturm.jpg,"Aiken Hartenfels, CC Attribution-Share Alike 3.0 de"
31,Weihnachtsmarkt Bölschestraße,Weihnachtsmarkt Bölschestraße,Bölschestraße,Treptow-Köpenick,12587 Berlin,19.12.25,21.12.25,"Freitag: 14:00 - 22:00 Uhr
Samstag: 12:00 - 22:00 Uhr
Sonntag: 12:00 - 20:00 Uhr",0,0,0,0,14:00 - 22:00,12:00 - 22:00,12:00 - 20:00,0,0,https://www.hauptstadtkultur.berlin/weihnachtsmarkt-bolschestrase-1/,"Der Weihnachtsmarkt an der Bölschestraße hat sich in den vergangenen Jahren als fester Bestandteil der Friedrichshagener Weihnacht etabliert. Eingebettet in die gemütliche Atmosphäre des Kiezes, lockt der Markt mit Ständen, die eine Vielfalt an handgemachten Geschenken, Kunsthandwerk und kulinarischen Klassikern wie Glühweintreff und gebrannten Mandeln bieten. Für die kleinen Gäste sorgen Fahr- und Spielgeschäfte für Abwechslung und Unterhaltung bei jedem Wetter. Erleben Sie den Weihnachtsmarkt Bölschestraße – hier trifft Berliner Weihnachtskultur auf den Charme eines lebendigen Kiezes! Der Eintritt ist frei! Hinweis zur Barrierefreiheit: Es stehen barrierefreie WCs zur Verfügung, Kabel und Schläuche werden mit Überfahrbrücken gesichert.","In recent years, the Christmas market on Bölschestraße has become an integral part of Christmas in Friedrichshagen. Nestled in the cozy atmosphere of the neighborhood, the market attracts visitors with stalls offering a variety of handmade gifts, arts and crafts, and culinary classics such as mulled wine and roasted almonds. For younger guests, rides and games provide variety and entertainment in all weather conditions. Experience the Bölschestraße Christmas Market – where Berlin Christmas culture meets the charm of a lively neighborhood! Admission is free! Barrier-free toilets are available, and cables and hoses are secured with bridges.",52.450313,13.624974,0,1,0,1,1,0,,placeholder.png,"freestocks.org, CC BY-SA 4.0 via Wikimedia Commons"
34,Rudower Weihnachtsmeile,Rudower Weihnachtsmeile,Alt Rudow & Krokusstraße,Neukölln,12357 Berlin,20.12.25,21.12.25,"Samstag: 12:00 - 22:00 Uhr
Sonntag: 12:00 - 20:00 Uhr",0,0,0,0,0,12:00 - 22:00,12:00 - 20:00,0,0,https://www.hauptstadtkultur.berlin/rudower-weihnachtsmeile-1/,"Die AG Rudow lädt zur traditionellen Rudower Weihnachtsmeile ein. Am 21. und 22. Dezember verwandeln sich die Straßen Alt Rudow und Krokusstraße in ein stimmungsvolles Weihnachtsdorf voller Musik, Unterhaltung und kulinarischer Highlights. Besucherinnen und Besucher können sich auf eine Vielzahl an Programmpunkten freuen, die für die perfekte Einstimmung auf die Feiertage sorgen. Die Rudower Weihnachtsmeile bietet an beiden Tagen ein vielseitiges Bühnenprogramm, das Jung und Alt gleichermaßen begeistert. Neben liebevoll dekorierten Ständen, die alles von handgefertigtem Kunsthandwerk bis zu weihnachtlichen Spezialitäten bieten, finden sich zahlreiche Attraktionen für Groß und Klein. Wärmender Glühwein und süße Köstlichkeiten wie gebrannte Mandeln, frische Waffeln und knackige Bratwürste sorgen für das leibliche Wohl. Ein nostalgisches Karussell und weitere Spielgeschäfte bieten Abwechslung und Spaß für die jüngsten Gäste. Der traditionelle Glühwein-Treff ist der perfekte Ort für Familien, Freunde und Nachbarn, die die Weihnachtszeit gemeinsam genießen möchten. Der Eintritt ist frei! Hinweis zur Barrierefreiheit: Es stehen barrierefreie WCs zur Verfügung, Kabel und Schläuche werden mit Überfahrbrücken gesichert.","The Rudow Working Group invites you to the traditional Rudow Christmas Mile. On December 21 and 22, Alt Rudow and Krokusstraße streets will be transformed into an atmospheric Christmas village full of music, entertainment, and culinary highlights. Visitors can look forward to a variety of program items that will get them in the perfect mood for the holidays. On both days, the Rudow Christmas Mile offers a varied stage program that will delight young and old alike. In addition to lovingly decorated stands offering everything from handmade crafts to Christmas specialties, there are numerous attractions for young and old. Warming mulled wine and sweet treats such as roasted almonds, fresh waffles, and crispy bratwurst will keep you well fed. A nostalgic carousel and other game stalls offer variety and fun for the youngest guests. The traditional mulled wine gathering is the perfect place for families, friends, and neighbors who want to enjoy the Christmas season together. Admission is free! Barrier-free toilets are available, and cables and hoses are secured with bridges.",52.4192,13.4936,0,1,0,1,1,0,,Weihnachtsmarkt_Rudow.jpg,Lisa S.
37,Adventsbasar im Lübarser Pfarrgarten - mit Bläsermusik und Adventssingen,Adventsbasar im Lübarser Pfarrgarten - mit Bläsermusik und Adventssingen,Alt-Lübars 24,Reinickendorf,13469 Berlin,30.11.25,30.11.25,12:00 - 17:00 Uhr,0,0,0,0,0,0,12:00 - 17:00,0,0,https://www.noomi-evangelisch.de/,Der Pfarrgarten ist barrierefrei zugänglich. Bitte öffentliche Verkehrsmittel nutzen. Es stehen nur sehr begrenzt Parkplätze zur Verfügung. Bitte unbedingt die Parkverbote beachten!,The parish garden is wheelchair accessible. Please use public transportation. Parking spaces are very limited. Please observe the parking restrictions!,52.6212,13.3566,0,1,0,1,0,0,,placeholder.png,"freestocks.org, CC BY-SA 4.0 via Wikimedia Commons"
40,Weihnachten an der Spree,Weihnachten an der Spree,Stralauer Allee 2,Friedrichshain,10245 Berlin,17.11.25,30.12.25,17-22 Uhr,17:00 - 22:00,17:00 - 22:00,17:00 - 22:00,17:00 - 22:00,17:00 - 22:00,17:00 - 22:00,17:00 - 22:00,0,0,https://www.weihnachten-an-der-spree.de/,"All Inklusive Weihnachtsmarkt - alle Speisen / Getränke sind im Eintrittspreis enthalten. Exklusiver Weihnachtsmarktbesuch mit einzigartigem Blick auf die Oberbaumbrücke. Bier, Wein, Sekt, alkoholfreie Getränke, Glühwein, Punsch, heiße Schokolade, Finnisches Flammlachs-Baguette mit Meerrettich-Dillsauce. Pulled Christmas Pork Burger mit Senfzwiebeln und Rotkraut, Bratwurst, Fleischkäse, Spätzle mit Gulasch oder Käse, Pilzpfanne, Chilli con Carne, Laugenbrezeln, Crepes, Waffeln, Quarkbällchen, gebrannte Mandeln Feuertonnen. Eisstockschießen, Hau den Lukas, XXL Jenga, 4 Gewinnt XXL & Baumstammnageln. Perfekt für Weihnachtsfeiern mit den Kollegen! Tickets nur per Vorverkauf über unsere Webseite - keine Abendkasse. Nicht vollständig barrierefrei","All-inclusive Christmas market – all food and drinks are included in the admission price. Exclusive Christmas market visit with a unique view of the Oberbaum Bridge. Beer, wine, sparkling wine, non-alcoholic beverages, mulled wine, punch, hot chocolate, Finnish flamed salmon baguette with horseradish and dill sauce. Pulled Christmas pork burger with mustard onions and red cabbage, bratwurst, meatloaf, spaetzle with goulash or cheese, mushroom pan, chili con carne, pretzels, crepes, waffles, quark balls, roasted almonds, fire barrels. Curling, high striker, XXL Jenga, Connect 4 XXL & log nailing. Perfect for Christmas parties with colleagues! Tickets only available in advance via our website – no box office. Not fully accessible.",52.5007,13.4489,0,0,0,0,1,1,S+U Warschauer Str.,Weihnachten_anDerSpree.jpg,"Reederei Riedel, CC Attribution 4.0"
43,Umwelt- und Weihnachtsmarkt in der Sophienstraße,Umwelt- und Weihnachtsmarkt in der Sophienstraße,Sophienstraße,Mitte,10178 Berlin,"29.11.25","21.12.25","Samstags: 12:00 - 20:00 Uhr 
Sonntags: 11:00 - 19:00 Uhr",0,0,0,0,0,12:00 - 20:00,11:00 - 19:00,0,0,https://www.weihnachtsmarkt-sophienstrasse.de,"Direkt neben den Hackeschen Höfen in einer der ältesten Straßen von Berlin, erwartet Sie ein außergewöhnliches Angebot an einzigartiger Designer- und Künstlerware. Das einmalige Konzept wurde bereits 1996 mit dem 1. Preis des Umweltwettbewerbs honoriert und hebt sich von den anderen Weihnachtsmärkten der Stadt wohltuend ab. Von trendig-hippem Berliner Design- und Kunsthandwerk über Naturwaren höchster Bio-Güte bis hin zu den verschiedensten Gegenständen aus fairem Handel. Hier findet jeder Besucher sein individuelles Geschenk! Seit über 20 Jahren in Berlin und über die Stadtgrenzen hinaus bekannt! Hinweis zur Barrierefreiheit: Normales Straßenland.","Right next to Hackesche Höfe in one of Berlin's oldest streets, an extraordinary range of unique designer and artist goods awaits you. The unique concept was awarded first prize in an environmental competition back in 1996 and stands out pleasantly from the city's other Christmas markets. From trendy, hip Berlin design and handicrafts to natural products of the highest organic quality and a wide variety of fair trade items. Every visitor will find their own individual gift here! Known in Berlin and beyond for over 20 years!",52.525699,13.400763,0,1,1,1,0,1,"S Hackescher Markt, U Weinmeisterstr.",Christmas_market_Sophienstraße_Berlin.jpg,"Leonhard Lenz, CC Zero, Public Domain Dedication"
46,Weihnachten an der Spree -All-Inclusiv-Weihnachtsmarkt,Weihnachten an der Spree -All-Inclusiv-Weihnachtsmarkt,Stralauer Allee 2,Friedrichshain,,17.11.25,31.12.25,10-22 Uhr,10:00 - 22:00,10:00 - 22:00,10:00 - 22:00,10:00 - 22:00,10:00 - 22:00,10:00 - 22:00,10:00 - 22:00,0,0,https://www.weihnachten-an-der-spree.de/,"Ja, aber teilweise mit Einschränkungen. Bitte beachten Sie, dass sich auf dem Gelände teilweise alte Schienen und Kabelbrücken befinden, die je nach Art der Mobilitätshilfen ein Hindernis darstellen können. Barrierefreie Toiletten stehen im Gebäude des Spreespeichers zur Verfügung. Es wird einen speziellen Eingang geben, der Rollstuhlfahrenden einen barrierefreien Zugang ermöglicht.",,52503,13447,1,0,0,0,0,1,S+U Warschauer Str.,placeholder.png,"freestocks.org, CC BY-SA 4.0 via Wikimedia Commons"
49,WEINachtsmarkt am Ludwig-Beck-Platz,WEINachtsmarkt am Ludwig-Beck-Platz,Ludwig-Beck-Platz,Steglitz-Zehlendorf,12203 Berlin,13.12.25,14.12.25,11:00 - 20:00 Uhr,0,0,0,0,0,11:00 - 20:00,11:00 - 20:00,0,0,https://www.family-and-friends-ev.de/,Hinweis zur Barrierefreiheit: von allen Seiten zugänglicher ebenerdiger Platz,ground-level space accessible from all sides,52.443,13.3121,0,1,1,1,0,0,,placeholder.png,"freestocks.org, CC BY-SA 4.0 via Wikimedia Commons"
52,Weihnachten in Westend,Weihnachten in Westend,Preußenallee,Charlottenburg-Wilmersdorf,14052 Berlin,20.12.25,21.12.25,12:00 - 20:00 Uhr,0,0,0,0,0,12:00 - 20:00,12:00 - 20:00,0,0,https://www.family-and-friends-ev.de/,Hinweis zur Barrierefreiheit: Ebenerdige Strasse,Accessibility: leveled road,52.5123,13.2594,0,1,1,1,0,0,,placeholder.png,"freestocks.org, CC BY-SA 4.0 via Wikimedia Commons"
55,Kunsthandwerklicher Adventmarkt am Karl-August-Platz,Kunsthandwerklicher Adventmarkt am Karl-August-Platz,Karl-August-Platz,Charlottenburg-Wilmersdorf,10625 Berlin,30.11.25,30.11.25,11:00 - 18:00 Uhr,0,0,0,0,0,0,11:00 - 18:00,0,0,https://www.family-and-friends-ev.de/,Hinweis zur Barrierefreiheit: ebenerdiger Platz,ground-level space accessible from all sides,52.5083,13.3101,0,1,1,1,0,1,U Wilmersdorfer Str.,placeholder.png,"freestocks.org, CC BY-SA 4.0 via Wikimedia Commons"
58,Adventmarkt in der Leonhardtstraße,Adventmarkt in der Leonhardtstraße,Leonhardtstrasse,Charlottenburg-Wilmersdorf,14057 Berlin,07.12.25,07.12.25,11:00 - 20:00 Uhr,0,0,0,0,0,0,11:00 - 20:00,0,0,https://www.family-and-friends-ev.de/,Hinweis zur Barrierefreiheit: findet auf dem Bürgersteig statt,Accessibility: takes place on the sidewalk,52.5053,13.297,0,1,1,1,0,1,S Charlottenburg Bhf,placeholder.png,"freestocks.org, CC BY-SA 4.0 via Wikimedia Commons"
61,Historische Weihnacht - Friedrichshain,Historische Weihnacht - Friedrichshain,Revaler Straße 99  | Eingang Höhe Dirschauer Straße,Friedrichshain,10245 Berlin,13.11.25,22.12.25,"Montag bis Donnerstag: 15:00 - 22:00 Uhr
Freitag: 15:00 - 23:00 Uhr
Samstag: 12:00 - 23:00 Uhr
Sonntag: 12:00 - 22:00 Uhr",15:00 - 22:00,15:00 - 22:00,15:00 - 22:00,15:00 - 22:00,15:00 - 23:00,12:00 - 23:00,12:00 - 22:00,0,0,https://www.carnica-spectaculi.de,"Kitschige Plastikweihnachtsmänner sind hier Fehlanzeige, stattdessen präsentieren und verkaufen Töpfer, Schmiede, Holzschnitzer und viele mehr ihr Handwerk. Besucher können sich an den Tavernen mit so manch edlem Tröpfchen, wie heißem Met, Glühwein, Glühbier und Feuerzangenbowle das Gemüt erwärmen und mit deftigen und süßen Speisen den Gaumen verwöhnen. Bei historischer Musik bringen Gaukler und Akrobaten mit ihren Feuershows das Publikum zum Staunen. Auch für die Unterhaltung der Kleinen ist gesorgt. Besonders schön & einzigartig für Kinder ist das handbetriebene Holzkarussell und Holzriesenrad. Beim Bogenschießen und Armbrustschießen können kleine & große Ritter und Prinzessinnen ihr Geschick beweisen. Die historische Weihnacht in Berlin Friedrichshain wird somit in der Vorweihnachtszeit zu einem einzigartigen Erlebnis für die ganze Familie.","There are no tacky plastic Santa Clauses here; instead, potters, blacksmiths, woodcarvers, and many others present and sell their crafts. Visitors can warm themselves up at the taverns with fine drinks such as hot mead, mulled wine, mulled beer, and Feuerzangenbowle (a type of mulled wine punch), and treat their taste buds to hearty and sweet dishes. Accompanied by historical music, jugglers and acrobats amaze the audience with their fire shows. Entertainment for the little ones is also provided. The hand-operated wooden carousel and wooden Ferris wheel are particularly beautiful and unique for children. Young and old knights and princesses alike can prove their skills at archery and crossbow shooting. The historic Christmas in Berlin Friedrichshain is thus a unique experience for the whole family in the run-up to Christmas.",52.5082,13.4528,0,0,1,0,1,1,S+U Warschauer Str.,placeholder.png,"freestocks.org, CC BY-SA 4.0 via Wikimedia Commons"
64,A very British Christmas - Your eco-friendly Christmas Fair,A very British Christmas - Your eco-friendly Christmas Fair,Preussenallee 17-19,Charlottenburg-Wilmersdorf,14052 Berlin,06.12.25,06.12.25,14:00-17:30 Uhr,0,0,0,0,0,14:00 - 17:30,0,0,0,https://www.stgeorgesberlin.de/,"Unter dem Motto ""A Very British Christmas - your eco-friendly Christmas market"" laden wir zum stimmungsvollen Adventsnachmittag mit englischem Weihnachtsgebäck, englischem Glühwein, Dudelsackklängen und englischen Weihnachtsliedern ein.","Under the motto “A Very British Christmas – your eco-friendly Christmas market,” we invite you to enjoy a festive Advent afternoon with English Christmas cookies, English mulled wine, bagpipe music, and English Christmas carols.",52.513,13.259,0,1,1,1,0,1,U Neu-Westend,placeholder.png,"freestocks.org, CC BY-SA 4.0 via Wikimedia Commons"
67,Weihnachtsmarkt im Paul Gerhardt Stift zu Berlin,Weihnachtsmarkt im Paul Gerhardt Stift zu Berlin,Müllerstraße 56 - 58,Wedding,13349 Berlin,07.12.25,07.12.25,14:00 - 18:00 Uhr,0,0,0,0,0,0,14:00 - 18:00,0,0,https://www.paulgerhardtstift.de,,,52.555,13.346,0,1,0,0,0,0,,placeholder.png,"freestocks.org, CC BY-SA 4.0 via Wikimedia Commons"
70,Lichtenrader Lichtermarkt und 650 Jahre Lichtenrade,Lichtenrader Lichtermarkt und 650 Jahre Lichtenrade,Alt-Lichtenrade,Tempelhof-Schöneberg,12309 Berlin,30.11.25,30.11.25,13:00 - 19:00 Uhr,0,0,0,0,0,0,13:00 - 19:00,0,0,https://www.berlin.de/ba-ts/lichtenrader-lichtermarkt,,,52.3906,13.4113,0,1,0,0,0,0,,placeholder.png,"freestocks.org, CC BY-SA 4.0 via Wikimedia Commons"
73,Prenzlauer Weihnachtsmarkt,Prenzlauer Weihnachtsmarkt,Marktberg,Brandenburg,17291 Berlin,29.11.25,14.12.25,"Montag bis Freitag: 10:00 - 20:00 Uhr
Samstag: 10:00 - 22:00 Uhr
Sonntag: 12:00 - 18:00 Uhr",10:00 - 20:00,10:00 - 20:00,10:00 - 20:00,10:00 - 20:00,10:00 - 20:00,10:00 - 22:00,12:00 - 18:00,0,0,https://www.prenzlau.eu,"Unter dem Motto ""A Very British Christmas - your eco-friendly Christmas market"" laden wir zum stimmungsvollen Adventsnachmittag mit englischem Weihnachtsgebäck, englischem Glühwein, Dudelsackklängen und englischen Weihnachtsliedern ein.","Under the motto “A Very British Christmas – your eco-friendly Christmas market,” we invite you to enjoy a festive Advent afternoon with English Christmas cookies, English mulled wine, bagpipe music, and English Christmas carols.",53.3132,13.8575,0,1,0,1,0,0,,placeholder.png,"freestocks.org, CC BY-SA 4.0 via Wikimedia Commons"
76,Winterquartier,Winterquartier,Napoleon Komplex  | Modersohnstraße 35–45,Mitte,10245 Berlin,28.11.25,31.03.26,"Weihnachtsmarkt:  Montag: 15:00 - 22:00 Uhr  | Dienstag: 15:00 - 22:00 Uhr | Mittwoch: 15:00 - 22:00 Uhr  | Donnerstag: 15:00 - 22:00 Uhr  | Freitag:  15:00 - 23:00 Uhr  | Samstag: 12:00 - 23:00 Uhr  | Sonntag: 12:00 - 22:00 Uhr

Eisbahn: Montag: 12:00 - 20:00 Uhr  | Dienstag: 12:00 - 20:00 Uhr  | Mittwoch: 12:00 - 20:00 Uhr  | Donnerstag: 12:00 - 22:00 Uhr  | Freitag: 12:00 - 24:00 Uhr  | Samstag: 10:00 - 24:00 Uhr  | Sonntag: 10:00 - 22:00 Uhr  ",15:00 - 22:00,15:00 - 22:00,15:00 - 22:00,15:00 - 22:00,15:00 - 23:00,12:00 - 23:00,12:00 - 22:00,0,0,https://www.winterquartier-berlin.de/,,,52.503,13.458,0,0,0,1,1,0,,placeholder.png,"freestocks.org, CC BY-SA 4.0 via Wikimedia Commons"
82,30. Weihnachtsmarkt auf Lehmanns Bauernhof,30. Weihnachtsmarkt auf Lehmanns Bauernhof,Lehmanns Bauernhof  | Alt-Marienfelde 35-37,Tempelhof-Schöneberg,12277 Berlin,05.12.25,14.12.25,"Freitag: 14:00 - 20:00 Uhr
Samstag: 12:00 - 20:00 Uhr
Sonntag: 12:00 - 20:00 Uhr",0,0,0,0,14:00 - 20:00,12:00 - 20:00,12:00 - 20:00,0,0,https://www.lehmannsbauernhof.de,"Auf einem denkmalgeschützten Vierseitenhof, direkt gegenüber der Dorfkirche an der romantischen Dorfaue gelegen, findet zum 30. Mal ein familiär geprägter Weihnachtsmarkt statt. Der Fokus liegt auf Kunsthandwerk und außergewöhnlichen Geschenkidee, ergänzt durch weihnachtliche Gaumengenüsse. Ein Bühnenprogramm, eine Märchenerzählerin sowie Ponyreiten und die Tiere des Hofes runden das Erlebnis bei freiem Eintritt ab. Hinweis zur Barrierefreiheit: ebenerdiges Gelände, teilweise Kopfsteinpflaster, mit gut zugänglichen Innenräumen.","A family-friendly Christmas market is being held for the 30th time on a listed four-sided farmstead, directly opposite the village church on the romantic village green. The focus is on arts and crafts and unusual gift ideas, complemented by Christmas culinary delights. A stage program, a storyteller, pony rides, and farm animals round off the experience, with free admission. Flat terrain, partly cobblestone, with easily accessible indoor areas.",52.4118,13.3668,0,1,0,1,1,0,,placeholder.png,"freestocks.org, CC BY-SA 4.0 via Wikimedia Commons"
85,Kunsthandwerklicher Weihnachtsmarkt vor dem Bröhan-Museum,Kunsthandwerklicher Weihnachtsmarkt vor dem Bröhan-Museum,Schloßstraße 1a,Charlottenburg-Wilmersdorf,14059 Berlin,06.12.25,07.12.25,"06.12.2025: 14:00 - 20:00 Uhr
07.12.2025: 13:00 - 19:00 Uhr",0,0,0,0,0,14:00 - 20:00,14:00 - 19:00,0,0,https://www.kiezkulturwerkstadt.de,Hinweis zur Barrierefreiheit: Der Weihnachtsmarkt findet ebenerdig statt. Die Stände sind sehr gut ausgeleuchtet.,Accessibility: The Christmas market takes place at ground level. The stalls are very well lit.,52.5211,13.2958,0,1,1,1,0,0,,placeholder.png,"freestocks.org, CC BY-SA 4.0 via Wikimedia Commons"
88,Adventsmarkt Hermannswerder,Adventsmarkt Hermannswerder,Hermannswerder 22,Brandenburg,14473 Potsdam ,07.12.25,07.12.25,14:00 - 18:00 Uhr,0,0,0,0,0,0,14:00 - 18:00,0,0,https://www.hoffbauer-stiftung.de/veranstaltungen/event/adventsmarkt-auf-hermannswerder,"Hinweis zur Barrierefreiheit: Der Markt findet im Freien statt, die Wiese kann Unebenheiten aufweisen. Barrierefreie Toiletten befinden sich im Hoffbauer Tagungshaus.","The market takes place outdoors, and the lawn may be uneven. Accessible toilets are located in the Hoffbauer Conference Center.",52.3824,13.034,0,1,0,1,0,0,,placeholder.png,"freestocks.org, CC BY-SA 4.0 via Wikimedia Commons"
91,Weihnacht to go im Kranoldkiez,Weihnacht to go im Kranoldkiez,Kranoldplatz und Umgebung in Lichterfelde-Ost,Steglitz-Zehlendorf,12209 Berlin,13.12.25,13.12.25,14:00 - 19:00 Uhr,0,0,0,0,0,14:00 - 19:00,0,0,0,https://www.meinlila.de,Hinweis zur Barrierefreiheit: Der Weihnachtsmarkt findet auf öffentlichem Straßenglände in Lichterfelde-Ost statt,The Christmas market takes place on public streets in Lichterfelde-Ost.,52.428,13.3273,0,1,0,1,0,1,S Lichterfelde Ost Bhf,placeholder.png,"freestocks.org, CC BY-SA 4.0 via Wikimedia Commons"
94,Romantischer Weihnachtsmarkt,Romantischer Weihnachtsmarkt,"Haus der Lebenshilfe, Dohnagestell 10",Mitte,13351 Berlin,13.12.25,13.12.25,13:00 - 18:00 Uhr,0,0,0,0,0,13:00 - 18:00,0,0,0,https://www.lebenshilfe-berlin.de,"Es ist ein besonderer Samstag in der Advents·zeit. Im Haus der Lebenshilfe und draußen im Garten. Für Groß und Klein im Weddinger Kiez. An Markt·ständen gibt es:Schöne Geschenk·ideen mit Liebe gemacht. Selbst·gebasteltes und Selbst·gemachtes. Kunst·handwerk und vieles mehr. Heiße Waffeln, Crêpes, Plätzchen und Kuchen. Kinder·punsch, Kakao und Glühwein. Bratwurst vom Grill, Grünkohl und andere Leckereien. Mit Musik vom Leierkasten·mann und Besuch vom Weihnachts·paar. Ab 16 Uhr tritt der Chor der Nogat-Singers auf.","It's a special Saturday during Advent. At the Haus der Lebenshilfe and outside in the garden. For young and old in the Wedding neighborhood. Market stalls offer: Beautiful gift ideas made with love. Handcrafted and homemade items. Arts and crafts and much more. Hot waffles, crêpes, cookies, and cakes. Children's punch, cocoa, and mulled wine. Grilled bratwurst, kale, and other delicacies. With music from the barrel organ player and a visit from the Christmas couple. The Nogat Singers choir will perform at 4 p.m.",52.5447,13.3342,1,1,0,1,0,0,,placeholder.png,"freestocks.org, CC BY-SA 4.0 via Wikimedia Commons"
97,Wedding-Weihnachtsmarkt,Wedding-Weihnachtsmarkt,Leopoldplatz,Mitte,13353 Berlin,"30.11.25","21.12.25",11:00 - 19:00 Uhr,0,0,0,0,0,0,11:00 - 19:00 ,0,0,https://wedding-markt.de/,"Weddingmarkt wird Weihnachtsmarkt: Alle Adventssonntage von 11 – 19 Uhr. Leopoldplatz Markt mit handgemachter Kunst, Design & Streetfood Lagerfeuer & Nebenprogramm |  An allen vier Adventssonntagen wird der Weddingmarkt im winterlichen Glanz erstrahlen - mitten im Stadtteil Wedding auf dem Leopoldplatz, vor der historischen Schinkel-Kirche (Alte Nazarethkirche). Dieses Jahr können ganz besondere Geschenke unter den Weihnachtsbaum gelegt werden, denn der Besuch beim weihnachtlichen Weddingmarkt verspricht außergewöhnliche Kunst, Design und echte Handwerksliebe. Viele Weddinger Labels zeigen draußen auf dem Leopoldplatz die hochwertige Vielfalt des lebendigen Stadtteils. |  Die Besucher erwarten rund 100 Stände mit Design, Fotografe, Keramik, Illustrationen, Malerei, Wohnaccessoires, Möbel, Schmuck, Mode, Spirituosen, Tees und vieles mehr.  |  Insgesamt wirken rund 250 verschiedene Aussteller an vier Terminen mit, sodass der Besuch jedesmal abwechslungsreich und lohnenswert ist. |  Zudem gibt es internationales Streetfood mit Spätzle, Raclette, asiatische Speisen, mexikanischen Tacos, vegetarische Speisen, bis hinzu knusprigen Waffeln ist alles für den anspruchsvollen Gaumen dabei. Glühwein und Lagerfeuer mit kostenloser „Stockbrot-Station“ für die kleinen Besucher laden zur weihnachtlichen Atmosphäre ein. Das Ganze wird begleitet durch ein künstlerisches Nebenprogramm mit Musik und vielen weiteren Überraschungen. |  Der Eintritt zum Markt ist wie immer frei. Im Vorfeld werden über Social Media Weddingmarkt-Unikate als Adventskalender verlost. Hinweis zur Barrierefreiheit: ebenerdiger Platz, direkte Anschluss zur U-Bahn und Öffi-Netz mit Aufzügen.","Weddingmarkt becomes Christmas market Every Sunday in Advent from 11 a.m. to 7 p.m., Leopoldplatz Market with handmade art, design & street food Campfire & side program
On all four Sundays in Advent, the Weddingmarkt will shine in winter splendor – on November 30, December 7, 14, and 21, 2025, from 11 a.m. to 7 p.m. – in the heart of the Wedding district on Leopoldplatz, in front of the historic Schinkel Church (Alte Nazarethkirche). This year, you can put some very special gifts under the Christmas tree, because a visit to the Christmas Weddingmarkt promises extraordinary art, design, and genuine craftsmanship. Many Wedding labels will be showcasing the high-quality diversity of this lively district outside on Leopoldplatz.
Visitors can expect around 100 stands with design, photography, ceramics, illustrations, paintings, home accessories, furniture, jewelry, fashion, spirits, teas, and much more.
A total of around 250 different exhibitors will be participating on four dates, ensuring that each visit is varied and worthwhile. 
There will also be international street food, including spaetzle, raclette, Asian dishes, Mexican tacos, vegetarian dishes, and even crispy waffles—something for every discerning palate. Mulled wine and a bonfire with a free “stick bread station” for younger visitors invite you to enjoy the Christmas atmosphere. The whole event is accompanied by an artistic side program with music and many other surprises. Ground-level location, direct connection to the subway and public transport network with elevators.
As always, admission to the market is free. In the run-up to the market, unique Weddingmarkt items will be raffled off as an Advent calendar on social media. All the latest information can be found at: wedding-markt.de",52.5494,13.3605,0,1,0,1,0,1,U Leopoldplatz,placeholder.png,"freestocks.org, CC BY-SA 4.0 via Wikimedia Commons"
100,27. Alt-Kaulsdorfer Weihnachtsmarkt,27. Alt-Kaulsdorfer Weihnachtsmarkt,Dorfstraße,Marzahn-Hellersdorf,12621 Berlin,06.12.25,06.12.25,13:00 bis 20:00 Uhr,0,0,0,0,0,13:00 - 20:00,0,0,0,https://www.kaulsdorfer-weihnachtsmarkt.de/,"Barrierefreie Wege, Rollstuhlgerecht. Beim nachbarschaftlichen Weihnachtsmarkt in Alt-Kaulsdorf kommt jedes Jahr im Dezember der Kiez zu gebrannten Mandeln und Glühwein zusammen. |  Der familiäre Weihnachtsmarkt mit seinen knapp 100 Ständen findet bereits seit über 20 Jahren statt und zählt inzwischen einige Stammkunden aus dem Bezirk. Auch beim 27. Alt-Kaulsdorfer Weihnachtsmarkt im Jahr 2025 bieten die Händler kleine, weihnachtliche Kostbarkeiten sowie süße und deftige Naschereien. Adventskonzerte und Ortsgeschichte |  Wer nicht nur stöbern, essen und trinken möchte, kann sich bei dem Veranstalter, dem Heimatverein Marzahn-Hellersdorf e.V. über die Geschichte des Dorfes Alt-Kaulsdorf informieren. In der mittelalterlichen Jesuskirche am Dorfanger laden zudem weihnachtliche Konzerte dazu ein, kurz innezuhalten.",,52507,13.58,1,1,0,1,0,0,,placeholder.png,"freestocks.org, CC BY-SA 4.0 via Wikimedia Commons"
103,Adventsbasar: Miteinander statt nebeneinander,Adventsbasar: Miteinander statt nebeneinander,Bahnhofstr. 32,Pankow,13129 Berlin,29.11.25,29.11.25,15:00-18:00 Uhr,0,0,0,0,0,15:00 - 18:00,0,0,0,https://www.ass-berlin.org,"Die Adventszeit ist eine Gelegenheit, innezuhalten und das Miteinander zu feiern, ins Gespräch zu kommen, Gemeinschaft zu erleben und Freude zu teilen. Unser Adventsbasar soll genau dafür ein Ort sein – offen, herzlich und lebendig. Besucher*innen können an den vielen Verkaufsständen liebevoll angefertigte Geschenke und festliche Dekorationen erwerben.  An den Essensständen erwarten sie süße Leckereien, herzhafte Spezialitäten und wärmende Getränke. Das Programm sorgt mit weihnachtlicher Musik und und einer Feuershow für Begeisterung bei Groß und Klein.","The Advent season is an opportunity to pause and celebrate togetherness, engage in conversation, experience community, and share joy. Our Advent bazaar aims to be just that kind of place—open, warm, and lively. Visitors can purchase lovingly crafted gifts and festive decorations at the many stalls. Sweet treats, savory specialties, and warming drinks await them at the food stalls. The program, featuring Christmas music and a fire show, is sure to delight young and old alike.",52.591,13.448,0,1,0,1,0,1,S Blankenburg,placeholder.png,"freestocks.org, CC BY-SA 4.0 via Wikimedia Commons"
106,Weihnachtsmarkt Charlottenburg,Weihnachtsmarkt Charlottenburg,Schloss Charlottenburg,Charlottenburg-Wilmersdorf,14059 Berlin,30.11.25,27.12.25,10:00-22:00 Uhr,10:00 - 22:00,10:00 - 22:00,10:00 - 22:00,10:00 - 22:00,10:00 - 22:00,10:00 - 22:00,10:00 - 22:00,0,0,,,,52.519,13.295,1,1,0,1,0,0,,placeholder.png,"freestocks.org, CC BY-SA 4.0 via Wikimedia Commons"
109,Winter am THF,Winter am THF,THF TOWER - Flughafen Tempelhof,Tempelhof-Schöneberg,12101 Berlin,"05.12.25","14.12.25","Freitag: 15:00 - 20:00 Uhr
Samstag und Sonntag: 12:00 - 20:00 Uhr",0,0,0,0,15:00 - 20:00,12:00 - 20:00,12:00 - 20:00,0,0,https://www.thf-berlin.de/winter-am-thf,"Wintermarkt in der Alten Feuerwache am THF TOWER mit Foodtrucks & Glühwein, Handgemachten Designobjekten und Geschenkideen, Weihnachtlicher Musik, Familienprogramm und großem Weihnachtssingen in der Haupthalle.
Barrierefreier Zugang.","Winter market in the old fire station at THF TOWER with food trucks & mulled wine, handmade design objects and gift ideas, Christmas music, family program, and large Christmas sing-along in the main hall.
Barrier-free access.",52.478,13.3869,0,1,0,1,0,1,U Paradestr.,placeholder.png,"freestocks.org, CC BY-SA 4.0 via Wikimedia Commons"
112,Adventsmarkt an der Sophienkirche,Adventsmarkt an der Sophienkirche,Große Hamburger Str. 29/30,Mitte,10115 Berlin,30.11.25,30.11.25,12:00 - 18:00 Uhr,0,0,0,0,0,0,12:00 - 18:00,0,0,https://www.marktzeit.berlin/mz/,,,52.525,13.400,0,1,0,1,0,1,"S Hackescher Markt, U Weinmeisterstr.",placeholder.png,"freestocks.org, CC BY-SA 4.0 via Wikimedia Commons"
115,Schwedischer Weihnachtsbasar,Schwedischer Weihnachtsbasar,Landhausstr.26-28,Charlottenburg-Wilmersdorf,10717 Berlin,28.11.25,30.11.25,"Freitag: 16:00-20:00 Uhr
Samstag: 12:00-19:00 Uhr
Sonntag: 12:00-18:00 Uhr",0,0,0,0,16:00 - 20:00,12:00 - 19:00,12:00 - 18:00,0,0,https://www.svenskakyrkan.se/berlin/nyheter/weihnachtsbasar-der-schwedische-kirche,"Herzlich willkommen zum Weihnachtsbasar der schwedischen Kirche!  Bei uns gibt es Kunsthandwerk, Weihnachtsdecken und Weihnachtsschmuck, Lebensmittel aus Schweden. Cafeteria, Imbisse. Die Lichtkönigin Lucia  singt mit ihrem Chor am Samstag- und Sonntagnachmittag. Eintritt 2 Euro. (Kinder bis 12 Jahre frei.) Der ganzen Markt findet wie im Vorjahr ausschließlich draußen statt. Hunde sind leider nicht erlaubt. Hinweis zur Barrierefreiheit: Bitte beim Eingang melden, dass man den Fahrstuhl benutzen möchte. Dann wird man ca 30 m zur nächsten Eingang begleitet, wo es einen Fahrstuhl gibt. Der ganze Markt ist ebenerdig, mit Wegen oder Rasen.","Welcome to the Swedish Church Christmas Bazaar! We offer handicrafts, Christmas blankets, Christmas decorations, and food from Sweden. Cafeteria and snacks available. The Queen of Light, Lucia, will sing with her choir on Saturday and Sunday afternoons. Admission is €2 (free for children under 12). As in previous years, the entire market will take place outdoors. Unfortunately, dogs are not allowed. Please inform the receptionist that you would like to use the elevator. You will then be accompanied approximately 30 meters to the nearest entrance, where there is an elevator. The entire market is at ground level, with paths and lawns.",52.4874,13.3285,0,0,1,1,0,1,"U Berliner Str., U Güntzelstr.",placeholder.png,"freestocks.org, CC BY-SA 4.0 via Wikimedia Commons"
118,LGBT*Winterdays und Christmas Avenue Nollendorfplatz,LGBT*Winterdays und Christmas Avenue Nollendorfplatz,Nollendorfplatz unter der Hochbahn,Tempelhof-Schöneberg,10777 Berlin,05.11.25,23.12.25,"Montag bis Donnerstag: 16:00 - 22:00 Uhr
Freitag bis Sonntag: 15:00 - 22:00 Uhr ",16:00 - 22:00,16:00 - 22:00,16:00 - 22:00,16:00 - 22:00,15:00 - 22:00,15:00 - 22:00,15:00 - 22:00,"16.11.25, 23.11.25",0,https://www.christmas-avenue.berlin/,"Glitzer, Beats und queere Liebe am Nollendorfplatz. Ab dem 5. November starten die LGBTQIA Winterdays, ab dem 24. November öffnet die CHRISTMAS AVENUE – Berlins einziger queerer Weihnachtsmarkt – wieder ihre Pforten. Bis 23. Dezember wird der Nollendorfplatz zum funkelnden Treffpunkt für Community, Freund:innen und Familien. Wenn draußen das Grau regiert, leuchtet unter der Hochbahn ein Ort voller Glitzer, Wärme und Miteinander: Die Christmas Avenue wird auch 2025 wieder das weihnachtliche Wohnzimmer der queeren Szene. Hinweis zur Barrierefreiheit: Auf dem Markt sind Holzhecksel gestreut. Sollten gehandicapte Besucher:innen hier Hilfe benötigen, spechen sie gerne unsere Mitarbeiter an. |  Zum Start lädt Drag-Queen Margot Schlönzke am 5. November zum legendären Drag-Bingo. Danach sorgen Live-Musik, Drag-Shows, Karaoke und die heißesten DJs der Szene für Partylaune – von House bis Pop. Berlins bekannteste Drag-Performerinnen übernehmen Moderation und Bühne. Dazu gibt’s kulinarische Highlights, Kunst, Design & Manufaktur-Stände, wettergeschützte Gemütlichkeit unter der Hochbahn – und jede Menge queere Sichtbarkeit: Vereine und Initiativen präsentieren ihre Arbeit, sammeln Spenden und laden zum Austausch ein. Für Gruppen gibt es eine Partyhütte zum Mieten.  |  Wöchentliche Specials wie Happy Hour (Mo), After Work (Do) und Aperol o’Clock (So) runden das Programm ab.","Glitter, beats, and queer love at Nollendorfplatz LGBTQIA Winterdays start on November 5, and CHRISTMAS AVENUE – Berlin's only queer Christmas market – reopens its doors on November 24. Until December 23, Nollendorfplatz will be a sparkling meeting place for the community, friends, and families. When gray reigns outside, a place full of glitter, warmth, and togetherness shines under the elevated railway: Christmas Avenue will once again be the queer scene's Christmas living room in 2025. Wood chips are scattered across the market. If disabled visitors need assistance here, please feel free to speak to our staff. |  To kick things off, drag queen Margot Schlönzke invites you to the legendary Drag Bingo on November 5. After that, live music, drag shows, karaoke, and the hottest DJs on the scene will keep the party going – from house to pop. Berlin's most famous drag performers will take over the stage and hosting duties. There will also be culinary highlights, art, design & manufacturing stands, weather-protected coziness under the elevated railway – and plenty of queer visibility: associations and initiatives will present their work, collect donations, and invite visitors to exchange ideas. Groups can rent a party hut.  |  Weekly specials such as Happy Hour (Mon), After Work (Thu), and Aperol o'Clock (Sun) round out the program.
",52.500,13.353,0,1,1,0,0,1,U Nollendorfplatz,christmas-avenue.jpeg,"Foto: https://www.christmas-avenue.berlin/pressebereich/"
121,Potsdamer Weihnachtszauber,Potsdamer Weihnachtszauber,Luisenplatz,Brandenburg,14471 Potsdam ,25.11.25,28.12.25,"Montag – Donnerstag und Sonntag: 11:00 bis 21:00 Uhr
Freitag – Samstag: 11:00 bis 22:00 Uhr
25./26. Dezember: 11:00 bis 18:00 Uhr",11:00 - 21:00,11:00 - 21:00,11:00 - 21:00,11:00 - 21:00,11:00 - 22:00,11:00 - 22:00,11:00 - 21:00,0,"25.12.25= 11:00 - 18:00, 26.12.24= 11:00 - 18:00",https://www.hauptstadtkultur.berlin,Potsdamer Weihnachtszauber,,52.400,13.048,0,1,0,1,0,1,Tramhaltestelle Luisenplatz-Süd/Park Sanssouci (Potsdam),placeholder.png,"freestocks.org, CC BY-SA 4.0 via Wikimedia Commons"
124,Weihnachtsmarkt Tempelhofer Hafen,Weihnachtsmarkt Tempelhofer Hafen,"Tempelhofer Hafen, Tempelhofer Damm 227",Tempelhof-Schöneberg,12099 Berlin,24.11.25,30.12.25,"Montag - Samstag: 11:00 - 21:00 Uhr
Sonntag: 13:00 - 19:00 Uhr
24.-26.12.24 geschlossen",11:00 - 21:00,11:00 - 21:00,11:00 - 21:00,11:00 - 21:00,11:00 - 21:00,11:00 - 21:00,13:00 - 19:00,"24.12.25, 25.12.25, 26.12.25",0,https://www.hauptstadtkultur.berlin/weihnachtsmarkt-tempelhofer-hafen/,"Weihnachtsmarkt Tempelhofer Hafen Leckereien, Live Musik am Wochenende, Kinderkarussell - Eintritt frei. Dieses wird es ab Mitte Dezember zusätzlich ein großes Riesenrad im Hafen geben! Lasst euch überraschen! Nur teilweise barrierefrei.","Tempelhof Harbor Christmas Market: Treats, live music on weekends, children's carousel – free admission. From mid-December, there will also be a large Ferris wheel in the harbor! Come and see for yourself!",52.4553,13.3878,0,1,0,0,1,1,"U Ullsteinstr., U Kaiserin-Augusta-Str.",Weihnachtsmarkt_Tempelhofer_Hafen.jpg,"Dguendel, CC BY 4.0 via Wikimedia Commons"
127,Weihnachtsrummel Helle-Mitte,Weihnachtsrummel Helle-Mitte,Alice-Salomon-Platz,Marzahn-Hellersdorf,12627 Berlin,26.11.25,30.12.25,"11:00-21:00 Uhr
24.12. geschlossen",11:00 - 21:00,11:00 - 21:00,11:00 - 21:00,11:00 - 21:00,11:00 - 21:00,11:00 - 21:00,11:00 - 21:00,24.12.25,0,https://www.hauptstadtkultur.berlin,Der Berliner Weihnachtsrummel 2025 am Alice-Salomon-Platz. Der Weihnachtsrummel am Alice-Salomon-Platz lädt vom 26. November bis zum 28. Dezember 2025 zu einem unvergesslichen Erlebnis ein. Täglich von 11 bis 21 Uhr können Besucher die festliche Stimmung genießen – und das bei freiem Eintritt,"The 2025 Berlin Christmas Market at Alice-Salomon-Platz. The Christmas Market at Alice-Salomon-Platz invites you to an unforgettable experience from November 26 to December 28, 2025. Visitors can enjoy the festive atmosphere daily from 11 a.m. to 9 p.m. – and admission is free.",52.540,13.602,0,1,0,1,1,1,U Hellersdorf,placeholder.png,"freestocks.org, CC BY-SA 4.0 via Wikimedia Commons"
130,Weihnachtsmarkt Königs Wusterhausen,Weihnachtsmarkt Königs Wusterhausen,Kirchplatz,Brandenburg,15711 Königs Wusterhausen,12.12.25,14.12.25,"Freitag 14.00 - 22.00 Uhr
Samstag 12.00 - 22.00 Uhr
Sonntag 12.00 - 20.00 Uhr",0,0,0,0,14:00 - 22:00,12:00 - 22:00,12:00 - 20:00,0,0,https://www.hauptstadtkultur.berlin,Weihnachtsmarkt Königs Wusterhausen. Vom 12. bis 14. Dezember 2025 lädt der Kirchplatz zu einem Weihnachtsmarkt der besonderen Art ein. Mit festlicher Beleuchtung erstrahlt der Platz an diesem Wochenende in einem stimmungsvollen Lichtermeer und lockt mit einem vielfältigen Bühnenprogramm sowie besonderen kulinarischen und handwerklichen Schätzen. Dazu gibt es ein Kinderkarussell und viele weitere Überraschungen für die Kleinsten. Der Eintritt ist frei.,"Königs Wusterhausen Christmas Market. From December 12 to 14, 2025, the church square invites visitors to a very special Christmas market. With festive lighting, the square will be aglow with an atmospheric sea of lights this weekend, attracting visitors with a varied stage program and special culinary and craft treasures. There will also be a children's carousel and many other surprises for the little ones. Admission is free.",52.299768,13.625263,0,1,0,1,0,0,,placeholder.png,"freestocks.org, CC BY-SA 4.0 via Wikimedia Commons"
133,Lichterfest Rudow,Lichterfest Rudow,"Alte Dorfschule Rudow, Alt-Rudow 60",Neukölln,12355 Berlin,24.11.25,24.11.25,16:00 - 21:00 Uhr,16:00 - 21:00,0,0,0,0,0,0,0,0,https://www.hauptstadtkultur.berlin,"Berlin-Rudow lädt am 24. November 2025 herzlich zum „Lichterfest Rudow“ ein! Genießen Sie den Zauber der Weihnachtszeit auf dem festlich beleuchteten Hof der Alten Dorfschule Rudow. Diese junge Tradition wird von der AG Rudow ins Leben gerufen und sorgt für einen großartigen Auftakt in die Weihnachtssaison – mit kostenfreiem Eintritt! Die Besucher erwartet ein stimmungsvoll geschmückter Hof, der die Vorfreude auf die Weihnachtszeit lebendig werden lässt. Inmitten des charmanten Alt-Rudow bietet das Fest ein abwechslungsreiches Programm, das keine Wünsche offen lässt.","Berlin-Rudow cordially invites you to the “Rudow Festival of Lights” on November 24, 2025! Enjoy the magic of the Christmas season in the festively illuminated courtyard of the Old Village School in Rudow. This young tradition was started by the Rudow Working Group and is a great way to kick off the Christmas season – with free admission! Visitors can expect an atmospherically decorated courtyard that brings the anticipation of the Christmas season to life. In the heart of charming Old Rudow, the festival offers a varied program that leaves nothing to be desired.",52.417,13.495,0,1,0,1,0,1,U Rudow,placeholder.png,"freestocks.org, CC BY-SA 4.0 via Wikimedia Commons"
134,Adventsmarkt Golm ,Adventsmarkt Golm ,"Campus der Universität Potsdam, Karl-Liebknecht-Str. 24-25",Brandenburg,14476 Potsdam,28.11.25,28.11.25,14:00 - 19:00 Uhr,0,0,0,0,14:00 - 19:00,0,0,0,0,https://www.hausdernatur-potsdam.de/events/adventsmarkt-golm/,,,52.40897109498182,12.972837798847854,0,1,0,0,0,1,"Potsdam, Golm Bhf",placeholder.png,"freestocks.org, CC BY-SA 4.0 via Wikimedia Commons"
135,Sternenmarkt mit Sternenfest,Sternenmakrt mit Sternenfest,"Brandenburg Museum für Zukunft, Gegenwart und Geschichte, Kutschstall, Am Neuen Markt 9",Brandenburg,14467 Potsdam ,05.12.25,07.12.25,"Freitag: 16:00 - 20:00 Uhr
Samstag: 11: 00 - 20:00 Uhr
Sonntag: 11:00 - 19:00 Uhr",0,0,0,0,16:00 - 20:00,11:00 - 20:00,11:00 - 19:00,0,0,https://gesellschaft-kultur-geschichte.de/veranstaltungen/sternenmarkt-sternenfest-weihnachtliche-begegnung-mit-polen-2025-vom-5-12-bis-7-12-2025-polnischer-weihnachtsmarkt-potsdam/,,,52.3961714537461,13.05638529701568,0,0,1,0,0,1,Tramhaltestelle Alter Markt/Landtag (Potsdam),placeholder.png,"freestocks.org, CC BY-SA 4.0 via Wikimedia Commons"
136,Nikolausmarkt auf dem Lottenhof,Nikolausmarkt auf dem Lottenhof,"Lottenhof, Geschwister-Scholl-Straße 34",Brandenburg,14471 Potsdam ,29.11.25,29.11.25,14:30 Uhr - 20:00 Uhr,0,0,0,0,0,14:30 - 20:00,0,0,0,,,,52.39385397219873,13.027574216931262,0,1,0,0,0,1,Tramhaltestelle Schloss Charlottenhof (Potsdam),placeholder.png,"freestocks.org, CC BY-SA 4.0 via Wikimedia Commons"
137,Hofweihnachtsmarkt in der Alexandrowka,Hofweihnachtsmarkt in der Alexandrowka,Alexandrowka Nr. 6 Russische Kolonie 6,Brandenburg,14469 Potsdam ,29.11.25,30.11.25,ab 12:00 Uhr,0,0,0,0,0,12:00 - 23:00,12:00 - 23:00,0,0,,,,52.4106950916787,13.05709493779083,0,1,1,0,0,1,Tramhaltestelle Puschkinalle (Potsdam),placeholder.png,"freestocks.org, CC BY-SA 4.0 via Wikimedia Commons"
138,Sinterklaas in Potsdam ,Sinterklaas in Potsdam ,Holländisches Viertel ,Brandenburg,14467 Potsdam ,13.12.25,14.12.25,11:00 - 19:00 Uhr,0,0,0,0,0,11:00 - 20:00,11:00 - 19:00,0,0,https://www.sinterklaas-potsdam.de/,,,52.40299598991009,13.060599246910698,0,1,1,0,0,0,,placeholder.png,"freestocks.org, CC BY-SA 4.0 via Wikimedia Commons"
139,Böhmischer Weihnachtsmarkt in Babelsberg,Böhmischer Weihnachtsmarkt in Babelsberg,Weberplatz,Brandenburg,14482 Potsdam,"28.11.25","07.12.25","Freitag: 17:00 - 22:00 Uhr
Samstag: 11:00 - 22:00 Uhr
Sonntag: 11:00 - 18:00 Uhr",0,0,0,0,17:00 - 22:00,11:00 - 22:00,11:00 - 18:00,0,0,,,,52.393618480718615,13.095165209728878,0,1,1,0,0,1,S Babelsberg,placeholder.png,"freestocks.org, CC BY-SA 4.0 via Wikimedia Commons"
140,4. Potsdamer Weinnacht,4. Potsdamer Weinnacht,Maulbeerallee 4,Brandenburg,14469 Potsdam ,29.11.25,29.11.25,13:00 - 20:00 Uhr,0,0,0,0,0,13:00 - 20:00,0,0,0,https://www.koeniglicher-weinberg.de/veranstaltungen/potsdamer-weinnacht/,,,52.40629860120973,13.019116939417014,0,1,1,0,0,0,,placeholder.png,"freestocks.org, CC BY-SA 4.0 via Wikimedia Commons"
2,FOREST WINTERLIGHTS,FOREST WINTERLIGHTS,Köpenicker Chaussee 46,Lichtenberg,10317 Berlin,07.11.25,15.02.26,"Mittwoch: 14:00 - 22:00 Uhr
Donnerstag: 14:00 - 22:00 Uhr
Freitag: 12:00 - 23:00 Uhr
Samstag: 11:00 - 23:00 Uhr
Sonntag: 11:00 - 22:00 Uhr",0,0,14:00 - 22:00,14:00 - 22:00,12:00 - 23:00 ,11:00 - 23:00 ,11:00 - 22:00 ,0,0,https://www.darkmatter.berlin/winterlights-25,"Mit FOREST – WINTERLIGHTS verwandelt sich die im März 2025 eröffnete Kunsthalle erstmals in ein leuchtendes Winterwunderland. Der Berliner Licht- und Medienkünstler Christopher Bauder komponiert auf 1.000 qm eine poetische Waldlandschaft mit über 600 meist von der Decke schwebenden Bäumen und mehr als 250.000 Lichtern, die sich zu einem schimmernden Geflecht aus Farbe, Glanz und Reflexion verdichten. Der ganze Raum wird zur Bühne und das Licht zum erzählenden Protagonisten. Bauder, bekennender Weihnachtsromantiker, bringt die nostalgische Wärme der Weihnachtstraditionen in die Gegenwart. Er lässt Berlins graue Wintertage in festlichem Glanz erstrahlen und verknüpft klassische Wintermotive mit radikal zeitgenössischer Lichtkunst. So entsteht eine ganz neue Perspektive auf das, was wir „die besinnliche Jahreszeit“ nennen: vertraut und doch entrückt. Hinweise zur Barrierefreiheit: Für bewegungseingeschränkte Besucher*innen bietet die TRANSFORMATOR-Kunsthalle einen barrierefreien Eingang an. Barrierefreie Toiletten befinden sich ebenerdig bei den anderen Sanitäreinrichtungen. Ist im Behindertenausweis ein „B“ eingetragen, ist der Eintritt für eine Begleitperson frei. Wir bitten euch darauf zu achten, dass Gehhilfen den Besucherweg nicht behindern. Sollten die Gegenstände Rettungswege versperren, müssen wir diese leider entfernen. Eine Haftung bei Schäden oder Verlust durch Dritte, kann nicht übernommen werden. Wir wünschen euch einen schönen Aufenthalt.","With FOREST – WINTERLIGHTS, the art gallery, which opened in March 2025, is being transformed into a glowing winter wonderland for the first time. Berlin-based light and media artist Christopher Bauder has composed a poetic forest landscape covering 1,000 square meters with over 600 trees, most of them suspended from the ceiling, and more than 250,000 lights that merge into a shimmering web of color, sparkle, and reflection. The entire space becomes a stage and the light becomes the narrative protagonist. Bauder, a self-confessed Christmas romantic, brings the nostalgic warmth of Christmas traditions into the present. He lets Berlin's gray winter days shine in festive splendor and combines classic winter motifs with radically contemporary light art. The result is a whole new perspective on what we call “the festive season”: familiar and yet enchanting. The TRANSFORMATOR art gallery offers barrier-free access for visitors with limited mobility. Barrier-free toilets are located at ground level alongside the other sanitary facilities. If your disability card is marked with a “B,” admission is free for one accompanying person. We kindly ask you to ensure that walking aids do not obstruct the visitor path. If these items block emergency exits, we will unfortunately have to remove them. We cannot accept liability for damage or loss caused by third parties. We wish you a pleasant stay.",52.492,13.492,0,0,0,1,1,0,,dark-matter.jpg,Foto: WHITEvoid
3,"Weihnachtsmarkt ""Lichterglanz im Tannenwald""","Weihnachtsmarkt ""Lichterglanz im Tannenwald""",Späthstraße 80/81,Treptow-Köpenick,12437 Berlin,29.11.25,14.12.25,"Samstag: 11:00 - 20:00 Uhr
Sonntag: 11:00 - 20:00 Uhr",0,0,0,0,0,11:00 - 20:00,11:00 - 20:00,0,0,https://www.spaethsche-baumschulen.de/,"Einer der schönsten Weihnachtsmärkte Berlins in historischer Umgebung: mit Weihnachtsmann und Weihnachtsengel, mehr als 100 Ständen mit Geschenkideen, Konzerten auf großer Bühne, Märchen mit dem Monbijou-Theater, Kremserfahrten, neuem Lichtergarten, Weihnachtsbasteln und Feuershows, weihnachtlichen Düften und Leckereien. Mittendrin: der Tannenwald mit Weihnachtsbäumen. Ein Weihnachtsmarkt wie aus dem Bilderbuch auf dem Hof der ältesten Baumschule Deutschlands.","One of Berlin's most beautiful Christmas markets in a historic setting: with Santa Claus and Christmas angels, more than 100 stalls offering gift ideas, concerts on a large stage, fairy tales with the Monbijou Theater, carriage rides, a new garden of lights, Christmas crafts and fire shows, Christmas scents and treats. Right in the middle: the fir forest with Christmas trees. A picture-perfect Christmas market in the courtyard of Germany's oldest tree nursery.",52.455,13.473,0,0,0,1,0,0,,placeholder.png,"freestocks.org, CC BY-SA 4.0 via Wikimedia Commons"
142,Osram Höfe Holiday Market,Osram Höfe Holiday Market,"Osram-Höfe Haus F, Oudenarder 16-20",Wedding,13347 Berlin,06.12.25,06.12.25,12:00 - 18:00 Uhr,0,0,0,0,0,12:00 - 18:00,0,0,0,https://www.vagabund.de/,"Hinweis zur Barrierefreiheit: Die Hälfte des Marktes ist barrierefrei und befindet sich im Erdgeschoss, die andere Hälfte befindet sich jedoch im Obergeschoss ohne barrierefreien Aufzug.
","Half of the market is wheelchair accessible and located on the ground floor, but the other half is located on the upper floor without a wheelchair-accessible elevator.",52.554,13.360,0,1,0,0,0,0,,placeholder.png,"freestocks.org, CC BY-SA 4.0 via Wikimedia Commons"
